[{"OBJECT_NAME":"STARLINK-30463","OBJECT_ID":"2023-146U","EPOCH":"2026-03-09T02:48:56.187936","MEAN_MOTION":15.02533398,"ECCENTRICITY":0.00011113,"INCLINATION":43.004,"RA_OF_ASC_NODE":316.1563,"ARG_OF_PERICENTER":265.2503,"MEAN_ANOMALY":94.8213,"EPHEMERIS_TYPE":0,"CLASSIFICATION_TYPE":"U","NORAD_CAT_ID":57909,"ELEMENT_SET_NO":999,"REV_AT_EPOCH":13592,"BSTAR":-2.9993693e-5,"MEAN_MOTION_DOT":-6.09e-6,"MEAN_MOTION_DDOT":0},{"OBJECT_NAME":"CZ-4B DEB","OBJECT_ID":"2010-051H","EPOCH":"2026-03-08T15:03:50.230080","MEAN_MOTION":14.83710316,"ECCENTRICITY":0.01132064,"INCLINATION":97.7035,"RA_OF_ASC_NODE":129.0061,"ARG_OF_PERICENTER":211.6401,"MEAN_ANOMALY":147.7975,"EPHEMERIS_TYPE":0,"CLASSIFICATION_TYPE":"U","NORAD_CAT_ID":38326,"ELEMENT_SET_NO":999,"REV_AT_EPOCH":80705,"BSTAR":0.001509593,"MEAN_MOTION_DOT":0.00013943,"MEAN_MOTION_DDOT":0}]
